NORAD_CAT_ID,OBJECT_NAME,OBJECT_TYPE,EPOCH,MEAN_MOTION,ECCENTRICITY,INCLINATION,RA_OF_ASC_NODE,ARG_OF_PERICENTER,MEAN_ANOMALY,BSTAR,MEAN_MOTION_DOT,MEAN_MOTION_DDOT,TLE_LINE0,TLE_LINE1,TLE_LINE2,SEMIMAJOR_AXIS,PERIOD,APOGEE,PERIGEE,DECAYED
51743.0,STARLINK-3512,PAYLOAD,2023-02-26 20:22:02,15.08848599,0.0001277,53.2168,237.9316,83.97,276.1438,0.000229,3.359e-05,0.0,0 STARLINK-3512,1 51743U 22016AF  23057.84864443  .00003359  00000-0  22900-3 0  9995,2 51743  53.2168 237.9316 0001277  83.9700 276.1438 15.08848599 57732,6917.854,95.437,540.603,538.836,0.0
51743.0,STARLINK-3512,PAYLOAD,2023-02-27 12:15:54,15.0884715,0.0001535,53.2173,234.9588,75.7301,284.3862,0.00019159,2.763e-05,0.0,0 STARLINK-3512,1 51743U 22016AF  23058.51104549  .00002763  00000-0  19159-3 0  9994,2 51743  53.2173 234.9588 0001535  75.7301 284.3862 15.08847150 56709,6917.859,95.437,540.785,538.662,0.0
51743.0,STARLINK-3512,PAYLOAD,2023-02-27 18:37:26,15.08873871,0.000139,53.217,233.7686,92.0167,268.0984,0.00081318,0.00012689,0.0,0 STARLINK-3512,1 51743U 22016AF  23058.77599549  .00012689  00000-0  81318-3 0  9994,2 51743  53.2170 233.7686 0001390  92.0167 268.0984 15.08873871 57875,6917.777,95.435,540.603,538.68,0.0
51743.0,STARLINK-3512,PAYLOAD,2023-02-27 20:12:49,15.08866745,0.0001271,53.2171,233.4725,96.4195,263.6942,0.00073486,0.00011435,0.0,0 STARLINK-3512,1 51743U 22016AF  23058.84223784  .00011435  00000-0  73486-3 0  9992,2 51743  53.2171 233.4725 0001271  96.4195 263.6942 15.08866745 56757,6917.799,95.436,540.543,538.784,0.0
51743.0,STARLINK-3512,PAYLOAD,2023-02-28 04:09:45,15.08839306,3.68e-05,53.2165,231.9842,167.1723,192.9278,-0.00024819,-4.235e-05,0.0,0 STARLINK-3512,1 51743U 22016AF  23059.17343809 -.00004235  00000-0 -24819-3 0  9998,2 51743  53.2165 231.9842 0000368 167.1723 192.9278 15.08839306 57932,6917.883,95.438,540.002,539.493,0.0
51743.0,STARLINK-3512,PAYLOAD,2023-02-28 15:17:27,15.08827634,0.0001092,53.2162,229.9023,108.9226,251.1884,0.00015568,2.19e-05,0.0,0 STARLINK-3512,1 51743U 22016AF  23059.63712840  .00002190  00000-0  15568-3 0  9991,2 51743  53.2162 229.9023 0001092 108.9226 251.1884 15.08827634 58004,6917.918,95.438,540.539,539.028,0.0
51743.0,STARLINK-3512,PAYLOAD,2023-02-28 20:03:37,15.0882368,0.0001055,53.2161,229.0111,102.8516,257.2594,0.0010011,0.00015673,0.0,0 STARLINK-3512,1 51743U 22016AF  23059.83585239  .00015673  00000-0  10011-2 0  9990,2 51743  53.2161 229.0111 0001055 102.8516 257.2594 15.08823680 56905,6917.93,95.439,540.525,539.065,0.0
51743.0,STARLINK-3512,PAYLOAD,2023-03-01 04:00:33,15.08817535,0.0001213,53.2159,227.5237,107.0609,253.0516,0.00056338,8.684e-05,0.0,0 STARLINK-3512,1 51743U 22016AF  23060.16705933  .00008684  00000-0  56338-3 0  9990,2 51743  53.2159 227.5237 0001213 107.0609 253.0516 15.08817535 58081,6917.949,95.439,540.653,538.975,0.0
51743.0,STARLINK-3512,PAYLOAD,2023-03-01 10:22:06,15.08818517,0.0001292,53.2162,226.3346,108.4721,251.6412,0.0003878,5.886e-05,0.0,0 STARLINK-3512,1 51743U 22016AF  23060.43202344  .00005886  00000-0  38780-3 0  9990,2 51743  53.2162 226.3346 0001292 108.4721 251.6412 15.08818517 56998,6917.946,95.439,540.705,538.917,0.0
51743.0,STARLINK-3512,PAYLOAD,2023-03-02 19:45:12,15.08878671,0.0001242,53.2155,220.0903,95.6478,264.4656,0.0013257,0.00020896,0.0,0 STARLINK-3512,1 51743U 22016AF  23061.82305557  .00020896  00000-0  13257-2 0  9993,2 51743  53.2155 220.0903 0001242  95.6478 264.4656 15.08878671 57205,6917.762,95.435,540.486,538.768,0.0
51743.0,STARLINK-3512,PAYLOAD,2023-03-03 10:03:39,15.08863776,0.0001022,53.2147,217.413,83.6312,276.4796,0.00047611,7.302e-05,0.0,0 STARLINK-3512,1 51743U 22016AF  23062.41921173  .00007302  00000-0  47611-3 0  9996,2 51743  53.2147 217.4130 0001022  83.6312 276.4796 15.08863776 58421,6917.808,95.436,540.38,538.966,0.0
51743.0,STARLINK-3512,PAYLOAD,2023-03-04 03:32:53,15.0887399,6.75e-05,53.216,214.1426,70.2577,289.8488,0.0014759,0.00023301,0.0,0 STARLINK-3512,1 51743U 22016AF  23063.14784283  .00023301  00000-0  14759-2 0  9999,2 51743  53.2160 214.1426 0000675  70.2577 289.8488 15.08873990 57408,6917.776,95.435,540.108,539.175,0.0
51743.0,STARLINK-3512,PAYLOAD,2023-03-04 21:02:07,15.08878006,0.0001499,53.2166,210.8698,95.0668,265.0495,0.0010178,0.00015964,0.0,0 STARLINK-3512,1 51743U 22016AF  23063.87647500  .00015964  00000-0  10178-2 0  9996,2 51743  53.2166 210.8698 0001499  95.0668 265.0495 15.08878006 58643,6917.764,95.435,540.666,538.592,0.0
51743.0,STARLINK-3512,PAYLOAD,2023-03-05 09:45:13,15.08829653,0.0001799,53.216,208.4933,68.8443,291.2741,-8.5955e-05,-1.655e-05,0.0,0 STARLINK-3512,1 51743U 22016AF  23064.40640787 -.00001655  00000-0 -85955-4 0  9997,2 51743  53.2160 208.4933 0001799  68.8443 291.2741 15.08829653 58722,6917.912,95.438,541.022,538.532,0.0
51743.0,STARLINK-3512,PAYLOAD,2023-03-06 19:08:19,15.08860868,0.0001592,53.2188,202.2466,83.2751,276.8422,0.0010607,0.00016643,0.0,0 STARLINK-3512,1 51743U 22016AF  23065.79745031  .00016643  00000-0  10607-2 0  9999,2 51743  53.2188 202.2466 0001592  83.2751 276.8422 15.08860868 58930,6917.817,95.436,540.783,538.58,0.0
51743.0,STARLINK-3512,PAYLOAD,2023-03-06 20:43:42,15.08878449,0.0001504,53.2177,201.9517,59.8238,300.2903,0.001632,0.00025808,0.0,0 STARLINK-3512,1 51743U 22016AF  23065.86368785  .00025808  00000-0  16320-2 0  9995,2 51743  53.2177 201.9517 0001504  59.8238 300.2903 15.08878449 57819,6917.763,95.435,540.668,538.587,0.0
51743.0,STARLINK-3512,PAYLOAD,2023-03-07 01:29:53,15.08835614,0.0002045,53.2177,201.0577,85.5323,274.5903,-0.00051754,-8.515e-05,0.0,0 STARLINK-3512,1 51743U 22016AF  23066.06242070 -.00008515  00000-0 -51754-3 0  9995,2 51743  53.2177 201.0577 0002045  85.5323 274.5903 15.08835614 58976,6917.894,95.438,541.174,538.344,0.0
51743.0,STARLINK-3512,PAYLOAD,2023-03-07 09:26:48,15.08835259,4.67e-05,53.2175,199.5734,113.4268,246.6773,0.00061398,9.496e-05,0.0,0 STARLINK-3512,1 51743U 22016AF  23066.39361593  .00009496  00000-0  61398-3 0  9995,2 51743  53.2175 199.5734 0000467 113.4268 246.6773 15.08835259 59022,6917.895,95.438,540.083,539.437,0.0
51743.0,STARLINK-3512,PAYLOAD,2023-03-07 15:48:20,15.08866358,0.0001614,53.2214,198.3841,84.9626,275.155,0.0026678,0.00042457,0.0,0 STARLINK-3512,1 51743U 22016AF  23066.65857447  .00042457  00000-0  26678-2 0  9997,2 51743  53.2214 198.3841 0001614  84.9626 275.1550 15.08866358 59065,6917.8,95.436,540.781,538.548,0.0
51743.0,STARLINK-3512,PAYLOAD,2023-03-08 01:20:40,15.08841624,0.0002333,53.2167,196.5974,86.8003,273.3256,0.00079274,0.00012352,0.0,0 STARLINK-3512,1 51743U 22016AF  23067.05601937  .00012352  00000-0  79274-3 0  9995,2 51743  53.2167 196.5974 0002333  86.8003 273.3256 15.08841624 59127,6917.875,95.437,541.354,538.126,0.0
51743.0,STARLINK-3512,PAYLOAD,2023-03-08 15:39:08,15.08864098,0.0001554,53.2196,193.9236,113.915,246.2005,0.0034578,0.00055211,0.0,0 STARLINK-3512,1 51743U 22016AF  23067.65217965  .00055211  00000-0  34578-2 0  9993,2 51743  53.2196 193.9236 0001554 113.9150 246.2005 15.08864098 58085,6917.807,95.436,540.747,538.597,0.0
51743.0,STARLINK-3512,PAYLOAD,2023-03-09 17:05:18,15.08865757,0.0001844,53.2147,189.164,80.9205,279.1996,0.0026983,0.00042948,0.0,0 STARLINK-3512,1 51743U 22016AF  23068.71202055  .00042948  00000-0  26983-2 0  9999,2 51743  53.2147 189.1640 0001844  80.9205 279.1996 15.08865757 59373,6917.802,95.436,540.942,538.391,0.0
51743.0,STARLINK-3512,PAYLOAD,2023-03-10 01:02:13,15.08865322,0.0001164,53.2173,187.6777,111.8863,248.2253,0.0011645,0.00018306,0.0,0 STARLINK-3512,1 51743U 22016AF  23069.04321513  .00018306  00000-0  11645-2 0  9997,2 51743  53.2173 187.6777 0001164 111.8863 248.2253 15.08865322 59422,6917.803,95.436,540.473,538.863,0.0
51743.0,STARLINK-3512,PAYLOAD,2023-03-10 07:23:46,15.08858149,0.0001913,53.2127,186.489,101.1974,258.9233,0.001598,0.00025249,0.0,0 STARLINK-3512,1 51743U 22016AF  23069.30817693  .00025249  00000-0  15980-2 0  9995,2 51743  53.2127 186.4890 0001913 101.1974 258.9233 15.08858149 59460,6917.825,95.436,541.013,538.367,0.0
51743.0,STARLINK-3512,PAYLOAD,2023-03-10 13:45:18,15.08868753,0.0001171,53.2155,185.3018,100.0506,260.0618,0.0017224,0.00027252,0.0,0 STARLINK-3512,1 51743U 22016AF  23069.57313190  .00027252  00000-0  17224-2 0  9996,2 51743  53.2155 185.3018 0001171 100.0506 260.0618 15.08868753 58378,6917.793,95.436,540.468,538.847,0.0
51743.0,STARLINK-3512,PAYLOAD,2023-03-11 00:53:00,15.08872078,5.62e-05,53.2199,183.2169,341.0941,19.003,0.0015974,0.00025248,0.0,0 STARLINK-3512,1 51743U 22016AF  23070.03680717  .00025248  00000-0  15974-2 0  9994,2 51743  53.2199 183.2169 0000562 341.0941  19.0030 15.08872078 59571,6917.782,95.436,540.036,539.259,0.0
51743.0,STARLINK-3512,PAYLOAD,2023-03-11 07:14:33,15.08820127,0.0001511,53.2143,182.0278,87.0789,273.0376,0.00019415,2.802e-05,0.0,0 STARLINK-3512,1 51743U 22016AF  23070.30177710  .00002802  00000-0  19415-3 0  9994,2 51743  53.2143 182.0278 0001511  87.0789 273.0376 15.08820127 59618,6917.941,95.439,540.851,538.761,0.0
51743.0,STARLINK-3512,PAYLOAD,2023-03-11 13:36:06,15.08827186,0.0001472,53.2159,180.84,68.2524,291.8624,0.0023839,0.00037842,0.0,0 STARLINK-3512,1 51743U 22016AF  23070.56674325  .00037842  00000-0  23839-2 0  9992,2 51743  53.2159 180.8400 0001472  68.2524 291.8624 15.08827186 59652,6917.92,95.438,540.803,538.766,0.0
51743.0,STARLINK-3512,PAYLOAD,2023-03-12 07:05:21,15.08848896,0.0001486,53.2157,177.5694,89.0269,271.0893,0.002717,0.00043229,0.0,0 STARLINK-3512,1 51743U 22016AF  23071.29539337  .00043229  00000-0  27170-2 0  9994,2 51743  53.2157 177.5694 0001486  89.0269 271.0893 15.08848896 59761,6917.853,95.437,540.746,538.69,0.0
51743.0,STARLINK-3512,PAYLOAD,2023-03-12 11:51:31,15.08833711,0.0001776,53.2166,176.6763,98.809,261.3103,0.00095755,0.00014982,0.0,0 STARLINK-3512,1 51743U 22016AF  23071.49411421  .00014982  00000-0  95755-3 0  9998,2 51743  53.2166 176.6763 0001776  98.8090 261.3103 15.08833711 59799,6917.9,95.438,540.993,538.536,0.0
